STARLINK-32255          
1 60417U 24141V   26068.70961049 -.00000487  00000+0 -43056-5 0  9991
2 60417  53.1587 242.4940 0001107  91.0152 269.0975 15.30197584 89582
LIZZIESAT-2 (LS-2)      
1 62383U 24247G   26068.49140277  .00009388  00000+0  34517-3 0  9997
2 62383  44.9909 117.0823 0004092 327.5136  32.5495 15.28222796 67716
